{"fetched_at":"2026-03-30T06:02:59Z","count":15439,"tles":[{"name":"STARLINK-32697","line1":"1 62436U 24251E   26087.72603997  .00028567  00000+0  97254-3 0  9998","line2":"2 62436  53.1570 246.8337 0000811  77.4072 282.7019 15.30212814 70861","category":"Starlink"}]}